ONEWEB-0283             
1 49001U 21060AL  25220.73784544  .00000053  00000+0  10578-3 0  9997
2 49001  87.9032 291.0673 0002112  92.1972 267.9401 13.16593833198503
ONEWEB-0284             
1 49002U 21060AM  25221.18748104 -.00002795  00000+0 -73457-2 0  9991
2 49002  87.9049 290.9535 0001704 101.3343 258.7979 13.16607224199855
ONEWEB-0285             
1 49075U 21075A   25220.79286162 -.00000451  00000+0 -12884-2 0  9998
2 49075  87.8845  52.7561 0001707  86.6967 273.4357 13.12440989194231
ONEWEB-0286             
1 49076U 21075B   25220.77474670  .00000003  00000+0 -27025-4 0  9997
2 49076  87.8867  52.7893 0001749  94.2792 265.8536 13.12441653193581
ONEWEB-0287             
1 49077U 21075C   25220.84118773  .00000023  00000+0  25859-4 0  9999
2 49077  87.9037  68.0226 0001633 100.1218 260.0097 13.17651510192492
ONEWEB-0288             
1 49078U 21075D   25221.20798472  .00000430  00000+0  11601-2 0  9991
2 49078  87.8850  52.6671 0001595  89.9384 270.1928 13.12443997195258
ONEWEB-0289             
1 49079U 21075E   25220.80241690  .00000081  00000+0  17608-3 0  9998
2 49079  87.9021  68.0607 0001371  72.8182 287.3099 13.17099048193064
ONEWEB-0290             
1 49080U 21075F   25220.85299384  .00000097  00000+0  21646-3 0  9992
2 49080  87.9027  68.0025 0001560  63.5234 296.6057 13.17648718192487
